NAVSTAR 85 (USA 581)    
1 67588U 26017A   26055.51952652 -.00000003  00000+0  00000+0 0  9995
2 67588  55.0130  93.2756 0001206  28.8360 331.2338  2.00560949429359
STARLINK-36641          
1 67589U 26018A   26056.16668981 -.00155654  00000+0 -10573-2 0  9991
2 67589  97.2854 121.3106 0001036  82.6611 263.5116 15.75287949  5332
STARLINK-36376          
1 67590U 26018B   26056.15114455  .00061585  00000+0  41017-3 0  9999
2 67590  97.2851 121.3361 0001457 117.3757 242.7656 15.75224995  5338
STARLINK-36391          
1 67591U 26018C   26056.12400532  .00390295  00000+0  19291-2 0  9992
2 67591  97.2858 121.3747 0002047 141.3073 218.8342 15.81036155  5330
STARLINK-36603          
1 67592U 26018D   26056.14690898  .00076691  00000+0  50932-3 0  9990
2 67592  97.2844 121.3421 0003305 112.2456 247.9160 15.75234987  5332
STARLINK-36634          
1 67593U 26018E   26056.13914955  .00207723  00000+0  13595-2 0  9998
2 67593  97.2833 121.3525 0002357 346.7800  13.3403 15.75196924  5332
STARLINK-36638          
1 67594U 26018F   26056.12099970  .00237241  00000+0  11991-2 0  9995
2 67594  97.2851 121.3787 0002446 118.1980 241.9536 15.80938380  5334
STARLINK-36628          
1 67595U 26018G   26056.15680210  .00246157  00000+0  16000-2 0  9994
2 67595  97.2841 121.3277 0001297  19.7393 340.3923 15.75248817  5332
STARLINK-36629          
1 67596U 26018H   26056.16455371  .00058918  00000+0  39248-3 0  9990
2 67596  97.2853 121.3166 0001569 104.5094 255.6345 15.75229408  5337
STARLINK-36384          
1 67597U 26018J   26056.16668981 -.00007337  00000+0 -48256-4 0  9995
2 67597  97.2851 121.4186 0001085  74.5423 163.5782 15.75241010  5395
STARLINK-36358          
1 67598U 26018K   26056.15855542  .00041156  00000+0  27514-3 0  9994
2 67598  97.2845 121.3251 0002218 107.3373 252.8134 15.75215632  5337
STARLINK-36582          
1 67599U 26018L   26056.14302942  .00249267  00000+0  16245-2 0  9996
2 67599  97.2850 121.3475 0005396 114.7690 245.4137 15.75167623  5388
